{"type":"FeatureCollection","features":[{"type":"Feature","geometry":{"type":"Polygon","coordinates":[[[17.000297388989367,60.277917720908675],[17.094397157537173,60.27524911250421],[17.19130610076533,60.309924044962884],[17.115932478253512,60.35255041550775],[17.051326516101824,60.33657205001276],[17.000297388989367,60.277917720908675]]]},"properties":{}},{"type":"Feature","geometry":{"type":"Polygon","coordinates":[[[16.938266082335417,60.30459183370601],[16.98133672377071,60.33390822815255],[17.029791195384178,60.37118195218844],[17.13208396879176,60.38980284231113],[17.28283121381412,60.456219173092336],[17.34205334578641,60.47479144570897],[17.374356326862852,60.651502676296985],[17.347035587700077,60.758806398337754],[17.1868833711047,60.92781387175614],[16.94665504621355,60.92003318571608],[16.951993453433403,60.7379436731336],[16.941316638993698,60.520691235723945],[16.96267026787322,60.4075622851997],[16.938266082335417,60.30459183370601]]]},"properties":{}},{"type":"Feature","geometry":{"type":"Polygon","coordinates":[[[15.431184455852957,56.115039874002775],[15.742650899478292,56.14826827281388],[15.789039518742328,56.11873333627881],[15.709516171434103,56.07438838434746],[15.431184455852957,56.115039874002775]]]},"properties":{}},{"type":"Feature","geometry":{"type":"Polygon","coordinates":[[[15.848682029223113,56.07808574773557],[16.0541173431036,56.31397996286188],[15.881816757268865,56.328675218849554],[15.523961694379466,56.51188913662358],[15.345034162935576,56.376395749451916],[15.610111987296875,56.21463896857395],[15.848682029223113,56.07808574773557]]]},"properties":{}},{"type":"Feature","geometry":{"type":"Polygon","coordinates":[[[12.94579236429584,55.59737613854384],[12.91117610317167,55.57781853980154],[12.91117610317167,55.54520088143278],[12.938099861824469,55.49949065273782],[12.96886987171257,55.44936611715778],[12.9342536105884,55.41445927020325],[12.888098595754968,55.4122765673813],[12.864133939342679,55.43753352478464],[12.82755630588369,55.40890979711864],[12.808636840301347,55.37883255003027],[12.86287264163684,55.39459015228084],[12.885576000335476,55.39817054988785],[12.909540656739892,55.385279600783974],[12.927198824617648,55.38814461936545],[12.963776458076637,55.40318256175851],[13.074770656160496,55.36951828803251],[13.098735312564884,55.376683299578815],[13.12774515979018,55.424655414724754],[12.94579236429584,55.59737613854384]]]},"properties":{}},{"type":"Feature","geometry":{"type":"Polygon","coordinates":[[[17.02069159101444,58.48694192491604],[16.960345294935195,58.480783046798365],[16.925712804343675,58.46946671786097],[16.907314293717974,58.47455951679558],[16.8780931297826,58.47116439949443],[16.853201027170797,58.4445579659552],[16.81099267926328,58.438894425406346],[16.789347372643874,58.415664378257674],[16.738480902089123,58.419064854688685],[16.71900012613216,58.421331656607435],[16.667051390246172,58.4303974054601],[16.633501164987138,58.43946082047799],[16.590210551749635,58.443991652916],[16.545837673179705,58.457014547071935],[16.497135733287337,58.47795430615781],[16.489559875970002,58.47229614170038],[16.45709191604223,58.47625695246782],[16.419212629458343,58.47738853070345],[16.368400704096416,58.48294497090393],[16.33359505249493,58.48578745080161],[16.316192226695506,58.50397387689458],[16.316192226695506,58.515335611127625],[16.292263341219297,58.52385449831874],[16.180232650130534,58.52442235058666],[16.170443560618025,58.53180359357873],[16.13128720256796,58.52442235058666],[16.075815695329965,58.510791358791295],[16.07364034210437,58.46531646184164],[16.044273073566842,58.45564546059782],[16.039922367116958,58.41750443414779],[15.990976919554356,58.422060759580376],[15.973574093753655,58.42092173347976],[15.957258944565723,58.42946353136176],[15.96052197440406,58.439710954045665],[15.977924800203539,58.44084937242789],[15.9692233873038,58.449955393850445],[15.955083591341406,58.467022833039636],[15.927891676028167,58.46872912141967],[15.906138143777582,58.48294497090393],[15.930067029253763,58.48976653630763],[15.93333005909085,58.5051102158323],[15.949645208278781,58.50738278335959],[15.946382178440416,58.515903601295406],[15.889822994589622,58.51703955404875],[15.878946228465594,58.52669366773347],[15.832176134127337,58.5204471916619],[15.762376881839884,58.52439500280113],[15.760201528614232,58.54653408921959],[15.692765578639438,58.55958392144001],[15.692765578639438,58.57603113100305],[15.671012046388881,58.57943303754078],[15.634031041563077,58.61116822528339],[15.62424195205054,58.64004487063997],[15.659047603650777,58.64174275365764],[15.696028608476524,58.664373305868054],[15.765639911676942,58.65815136680524],[15.920089990654134,58.62419398080891],[15.967947761605217,58.68133659168211],[15.986438264017437,58.68868478661852],[15.982087557567553,58.72201482221067],[15.998402706755513,58.75587707262227],[16.066926333343076,58.79139696736334],[16.076715422855585,58.82631760393241],[16.18664275743032,58.855065941888256],[16.214922349355106,58.83875001562805],[16.266043150143275,58.83143348449158],[16.28888435900663,58.797081432829316],[16.310637891257244,58.79257372147731],[16.296498095293543,58.77679212071567],[16.313900921094273,58.76664301760829],[16.31716395093136,58.77397322283511],[16.337829806569204,58.77397322283511],[16.36610939849524,58.751977966598275],[16.378073841232037,58.727146088389304],[16.383512224294662,58.706251011624886],[16.415054846057785,58.70116652890701],[16.42919464202015,58.6943860640105],[16.596696840346993,58.6932558582285],[16.6260641088858,58.68703907112524],[16.640203904848192,58.67290588472639],[16.680447939511055,58.67686375444734],[16.75658530238681,58.635000684971516],[16.75332227254978,58.62650880496534],[16.73700712336185,58.61801486040511],[16.709815208048525,58.62537639831618],[16.663045113710297,58.625942606228705],[16.631502491948453,58.637830852905125],[16.596696840346993,58.6366988132541],[16.55536512907264,58.643490500739574],[16.49663059199625,58.650846671575835],[16.430282318633004,58.65876696824779],[16.388950607357344,58.657635607346236],[16.44659746782088,58.635000684971516],[16.503156651671702,58.6270749945262],[16.520559477471153,58.61801486040511],[16.534699273434796,58.61858118761265],[16.543400686334564,58.62820734612086],[16.553189775847073,58.635000684971516],[16.59234613389708,58.62877350815489],[16.66630814354866,58.61631582371885],[16.707639854824293,58.60328713153996],[16.77072509834923,58.60328713153996],[16.802267720112326,58.5976209681954],[16.851213167674757,58.59875427430009],[16.90994770475109,58.597054301364096],[17.03067980873965,58.58005002716391],[17.060047077277204,58.53352949987499],[17.02069159101444,58.48694192491604]]]},"properties":{}}]}